{
    "links": {
        "self": "http://www.neowsapp.com/rest/v1/neo/3781729?api_key=iIulBulltgU6a56xZRHN4H3l9WmuAYTsLGpBGhQ2"
    },
    "id": "3781729",
    "neo_reference_id": "3781729",
    "name": "(2017 SD12)",
    "designation": "2017 SD12",
    "nasa_jpl_url": "http://ssd.jpl.nasa.gov/sbdb.cgi?sstr=3781729",
    "absolute_magnitude_h": 25.0,
    "estimated_diameter": {
        "kilometers": {
            "estimated_diameter_min": 0.02658,
            "estimated_diameter_max": 0.0594346868
        },
        "meters": {
            "estimated_diameter_min": 26.58,
            "estimated_diameter_max": 59.4346868419
        },
        "miles": {
            "estimated_diameter_min": 0.0165160412,
            "estimated_diameter_max": 0.0369309908
        },
        "feet": {
            "estimated_diameter_min": 87.2047272,
            "estimated_diameter_max": 194.9956979785
        }
    },
    "is_potentially_hazardous_asteroid": false,
    "close_approach_data": [
        {
            "close_approach_date": "1963-08-29",
            "close_approach_date_full": "1963-Aug-29 08:09",
            "epoch_date_close_approach": -200159460000,
            "relative_velocity": {
                "kilometers_per_second": "6.7791397911",
                "kilometers_per_hour": "24404.903248115",
                "miles_per_hour": "15164.2577988079"
            },
            "miss_distance": {
                "astronomical": "0.0680783149",
                "lunar": "26.4824644961",
                "kilometers": "10184370.902229263",
                "miles": "6328274.6326513094"
            },
            "orbiting_body": "Earth"
        },
        {
            "close_approach_date": "1989-10-17",
            "close_approach_date_full": "1989-Oct-17 18:55",
            "epoch_date_close_approach": 624653700000,
            "relative_velocity": {
                "kilometers_per_second": "18.0856366262",
                "kilometers_per_hour": "65108.2918543171",
                "miles_per_hour": "40455.760569145"
            },
            "miss_distance": {
                "astronomical": "0.36129864",
                "lunar": "140.54517096",
                "kilometers": "54049506.9778968",
                "miles": "33584806.28790384"
            },
            "orbiting_body": "Earth"
        },
        {
            "close_approach_date": "1991-06-15",
            "close_approach_date_full": "1991-Jun-15 04:18",
            "epoch_date_close_approach": 676959480000,
            "relative_velocity": {
                "kilometers_per_second": "14.5040957531",
                "kilometers_per_hour": "52214.7447110398",
                "miles_per_hour": "32444.2117900347"
            },
            "miss_distance": {
                "astronomical": "0.2811758959",
                "lunar": "109.3774235051",
                "kilometers": "42063315.121981733",
                "miles": "26136932.0311565954"
            },
            "orbiting_body": "Earth"
        },
        {
            "close_approach_date": "2017-09-19",
            "close_approach_date_full": "2017-Sep-19 17:08",
            "epoch_date_close_approach": 1505840880000,
            "relative_velocity": {
                "kilometers_per_second": "8.0301199378",
                "kilometers_per_hour": "28908.4317759528",
                "miles_per_hour": "17962.5752887858"
            },
            "miss_distance": {
                "astronomical": "0.0083164638",
                "lunar": "3.2351044182",
                "kilometers": "1244125.270412106",
                "miles": "773063.5955988228"
            },
            "orbiting_body": "Earth"
        }
    ],
    "orbital_data": {
        "orbit_id": "3",
        "orbit_determination_date": "2017-10-02 06:49:02",
        "first_observation_date": "2017-09-22",
        "last_observation_date": "2017-10-01",
        "data_arc_in_days": 9,
        "observations_used": 112,
        "orbit_uncertainty": "6",
        "minimum_orbit_intersection": ".00745767",
        "jupiter_tisserand_invariant": "4.422",
        "epoch_osculation": "2459000.5",
        "eccentricity": ".3628076046469016",
        "semi_major_axis": "1.520398392721405",
        "inclination": "6.947078121356911",
        "ascending_node_longitude": "178.5820836491164",
        "orbital_period": "684.7539238910956",
        "perihelion_distance": ".9687862937491529",
        "perihelion_argument": "145.6270451683914",
        "aphelion_distance": "2.072010491693657",
        "perihelion_time": "2458673.453078037187",
        "mean_anomaly": "171.9404413742913",
        "mean_motion": ".5257363082409368",
        "equinox": "J2000",
        "orbit_class": {
            "orbit_class_type": "APO",
            "orbit_class_description": "Near-Earth asteroid orbits which cross the Earth’s orbit similar to that of 1862 Apollo",
            "orbit_class_range": "a (semi-major axis) > 1.0 AU; q (perihelion) < 1.017 AU"
        }
    },
    "is_sentry_object": false
}